[{"OBJECT_NAME":"STARLINK-3748","OBJECT_ID":"2022-041G","EPOCH":"2026-03-09T11:57:49.426272","MEAN_MOTION":15.08841227,"ECCENTRICITY":0.00014549,"INCLINATION":53.2169,"RA_OF_ASC_NODE":109.986,"ARG_OF_PERICENTER":81.4057,"MEAN_ANOMALY":278.71,"EPHEMERIS_TYPE":0,"CLASSIFICATION_TYPE":"U","NORAD_CAT_ID":52267,"ELEMENT_SET_NO":999,"REV_AT_EPOCH":21433,"BSTAR":1.0769147e-5,"MEAN_MOTION_DOT":-1.17e-6,"MEAN_MOTION_DDOT":0},{"OBJECT_NAME":"ICEYE-X67","OBJECT_ID":"2025-248K","EPOCH":"2026-03-09T22:00:01.999584","MEAN_MOTION":15.09405994,"ECCENTRICITY":0.00063951,"INCLINATION":45.4045,"RA_OF_ASC_NODE":295.7576,"ARG_OF_PERICENTER":209.4534,"MEAN_ANOMALY":51.9892,"EPHEMERIS_TYPE":0,"CLASSIFICATION_TYPE":"U","NORAD_CAT_ID":66302,"ELEMENT_SET_NO":999,"REV_AT_EPOCH":578,"BSTAR":-0.000164009,"MEAN_MOTION_DOT":-2.917e-5,"MEAN_MOTION_DDOT":0}]
